IRIDIUM 119             
1 42959U 17061E   25028.70030854 -.00000123  00000+0 -51036-4 0  9994
2 42959  86.3947 236.0194 0001827  98.5905 261.5498 14.34216147382503
IRIDIUM 107             
1 42960U 17061F   25029.48681011  .00000603  00000+0  20832-3 0  9999
2 42960  86.3943 235.7087 0002269 102.0409 258.1041 14.34219394382636
IRIDIUM 132             
1 42961U 17061G   25029.49313331  .00000234  00000+0  76389-4 0  9997
2 42961  86.3942 235.6889 0002156  91.2082 268.9360 14.34217875382620
IRIDIUM 136             
1 42962U 17061H   25029.52485606  .00000188  00000+0  60228-4 0  9990
2 42962  86.3944 235.6802 0002042 102.1038 258.0386 14.34218466382642
IRIDIUM 139             
1 42963U 17061J   25029.11257625  .00000203  00000+0  65549-4 0  9993
2 42963  86.3944 235.9061 0002223  97.2127 262.9322 14.34217311382593
IRIDIUM 125             
1 42964U 17061K   25029.51851931  .00000505  00000+0  17312-3 0  9997
2 42964  86.3947 235.7884 0001745 107.4132 252.7255 14.34220403382662
IRIDIUM 135             
1 43070U 17083A   25029.14378577  .00000530  00000+0  18216-3 0  9991
2 43070  86.4017 172.6854 0002000  89.6092 270.5333 14.34218107371905
IRIDIUM 138             
1 43071U 17083B   25029.09939153  .00000299  00000+0  99675-4 0  9990
2 43071  86.4006 172.3931 0001451 103.3541 256.7816 14.34215987371881
